$$SOE
2460721.500000000, A.D. 2025-Feb-15 00:00:00.0000, 2.666157144828203E+08, -9.751799165873876E+07, 2.035062785752818E+07,
2460728.500000000, A.D. 2025-Feb-22 00:00:00.0000, 2.697274089040073E+08, -8.390187326013638E+07, 2.027827150575458E+07,
2460735.500000000, A.D. 2025-Mar-01 00:00:00.0000, 2.722627476445779E+08, -7.010657966881046E+07, 2.016258461184394E+07,
2460742.500000000, A.D. 2025-Mar-08 00:00:00.0000, 2.742080105689773E+08, -5.615944462745567E+07, 2.000319891265727E+07,
2460749.500000000, A.D. 2025-Mar-15 00:00:00.0000, 2.755510015161351E+08, -4.208905317458176E+07, 1.979987702031264E+07,
2460756.500000000, A.D. 2025-Mar-22 00:00:00.0000, 2.762811838211125E+08, -2.792514056541747E+07, 1.955252001025488E+07,
2460763.500000000, A.D. 2025-Mar-29 00:00:00.0000, 2.763898098948209E+08, -1.369847605542110E+07, 1.926117383317579E+07,
2460770.500000000, A.D. 2025-Apr-05 00:00:00.0000, 2.758700426510594E+08, 5.592711012194622E+05, 1.892603461250920E+07,
2460777.500000000, A.D. 2025-Apr-12 00:00:00.0000, 2.747170643301095E+08, 1.481568263256869E+07, 1.854745285857648E+07,
2460784.500000000, A.D. 2025-Apr-19 00:00:00.0000, 2.729281700875680E+08, 2.903775698877911E+07, 1.812593640492823E+07,
2460791.500000000, A.D. 2025-Apr-26 00:00:00.0000, 2.705028443363952E+08, 4.319208787551780E+07, 1.766215190545697E+07,
2460798.500000000, A.D. 2025-May-03 00:00:00.0000, 2.674428179159577E+08, 5.724505343726981E+07, 1.715692478864494E+07,
2460805.500000000, A.D. 2025-May-10 00:00:00.0000, 2.637521044005816E+08, 7.116301357554364E+07, 1.661123760218835E+07,
2460812.500000000, A.D. 2025-May-17 00:00:00.0000, 2.594370142650820E+08, 8.491251253420347E+07, 1.602622671031504E+07,
2460819.500000000, A.D. 2025-May-24 00:00:00.0000, 2.545061462211774E+08, 9.846048363977359E+07, 1.540317732893291E+07,
2460826.500000000, A.D. 2025-May-31 00:00:00.0000, 2.489703557830358E+08, 1.117744532987872E+08, 1.474351692725464E+07,
2460833.500000000, A.D. 2025-Jun-07 00:00:00.0000, 2.428427008105402E+08, 1.248227421950091E+08, 1.404880720742606E+07,
2460840.500000000, A.D. 2025-Jun-14 00:00:00.0000, 2.361383623510321E+08, 1.375746598302138E+08, 1.332073494150411E+07,
2460847.500000000, A.D. 2025-Jun-21 00:00:00.0000, 2.288745432325905E+08, 1.500006860958585E+08, 1.256110143853033E+07,
2460854.500000000, A.D. 2025-Jun-28 00:00:00.0000, 2.210703492350473E+08, 1.620726388220636E+08, 1.177181067200875E+07,
2460861.500000000, A.D. 2025-Jul-05 00:00:00.0000, 2.127466534270729E+08, 1.737638269791832E+08, 1.095485657897991E+07,
2460868.500000000, A.D. 2025-Jul-12 00:00:00.0000, 2.039259449442246E+08, 1.850491866518609E+08, 1.011230978807881E+07,
2460875.500000000, A.D. 2025-Jul-19 00:00:00.0000, 1.946321651358815E+08, 1.959053975873191E+08, 9.246303935219854E+06,
2460882.500000000, A.D. 2025-Jul-26 00:00:00.0000, 1.848905342066965E+08, 2.063109791228072E+08, 8.359021767800555E+06,
2460889.500000000, A.D. 2025-Aug-02 00:00:00.0000, 1.747273714178377E+08, 2.162463648723671E+08, 7.452681252819210E+06,
2460896.500000000, A.D. 2025-Aug-09 00:00:00.0000, 1.641699118640642E+08, 2.256939560030261E+08, 6.529521893197060E+06,
2460903.500000000, A.D. 2025-Aug-16 00:00:00.0000, 1.532461227996095E+08, 2.346381533367040E+08, 5.591791429631382E+06,
2460910.500000000, A.D. 2025-Aug-23 00:00:00.0000, 1.419845225202211E+08, 2.430653690067270E+08, 4.641733070247456E+06,
2460917.500000000, A.D. 2025-Aug-30 00:00:00.0000, 1.304140045968486E+08, 2.509640194669943E+08, 3.681573421284303E+06,
2460924.500000000, A.D. 2025-Sep-06 00:00:00.0000, 1.185636682178923E+08, 2.583245022527683E+08, 2.713511452657670E+06,
2460931.500000000, A.D. 2025-Sep-13 00:00:00.0000, 1.064626548168586E+08, 2.651391556675617E+08, 1.739708549277321E+06,
2460938.500000000, A.D. 2025-Sep-20 00:00:00.0000, 9.413999579920618E+07, 2.714022016246037E+08, 7.622792872906476E+05,
2460945.500000000, A.D. 2025-Sep-27 00:00:00.0000, 8.162447365559018E+07, 2.771096767106934E+08, -2.167168679140806E+05,
2460952.500000000, A.D. 2025-Oct-04 00:00:00.0000, 6.894449531375945E+07, 2.822593539771158E+08, -1.195282698911652E+06,
2460959.500000000, A.D. 2025-Oct-11 00:00:00.0000, 5.612797788943452E+07, 2.868506564712842E+08, -2.171489257617429E+06,
2460966.500000000, A.D. 2025-Oct-18 00:00:00.0000, 4.320224735706908E+07, 2.908845641384969E+08, -3.143480843648121E+06,
2460973.500000000, A.D. 2025-Oct-25 00:00:00.0000, 3.019395025402740E+07, 2.943635159139323E+08, -4.109478991415188E+06,
2460980.500000000, A.D. 2025-Nov-01 00:00:00.0000, 1.712897820428550E+07, 2.972913087030690E+08, -5.067785520852819E+06,
2460987.500000000, A.D. 2025-Nov-08 00:00:00.0000, 4.032404852431652E+06, 2.996729947523190E+08, -6.016784719969451E+06,
2460994.500000000, A.D. 2025-Nov-15 00:00:00.0000, -9.071565242053615E+06, 3.015147787202380E+08, -6.954944747150570E+06,
2461001.500000000, A.D. 2025-Nov-22 00:00:00.0000, -2.215963606505390E+07, 3.028239158676412E+08, -7.880818346327901E+06,
2461008.500000000, A.D. 2025-Nov-29 00:00:00.0000, -3.520944891934538E+07, 3.036086135320193E+08, -8.793042845296994E+06,
2461015.500000000, A.D. 2025-Dec-06 00:00:00.0000, -4.819960363659469E+07, 3.038779366125224E+08, -9.690339317831397E+06,
2461022.500000000, A.D. 2025-Dec-13 00:00:00.0000, -6.110967267616864E+07, 3.036417143771917E+08, -1.057151129921700E+07,
2461029.500000000, A.D. 2025-Dec-20 00:00:00.0000, -7.392020552066238E+07, 3.029104501573102E+08, -1.143544336300695E+07,
2461036.500000000, A.D. 2025-Dec-27 00:00:00.0000, -8.661272532096751E+07, 3.016952369442426E+08, -1.228109931983720E+07,
2461043.500000000, A.D. 2026-Jan-03 00:00:00.0000, -9.916972009166256E+07, 3.000076785566319E+08, -1.310752001971392E+07,
2461050.500000000, A.D. 2026-Jan-10 00:00:00.0000, -1.115746291549576E+08, 2.978598158655602E+08, -1.391382088135381E+07,
2461057.500000000, A.D. 2026-Jan-17 00:00:00.0000, -1.238118253647566E+08, 2.952640580593308E+08, -1.469918922995649E+07,
2461064.500000000, A.D. 2026-Jan-24 00:00:00.0000, -1.358665937470904E+08, 2.922331189653617E+08, -1.546288149608614E+07,
2461071.500000000, A.D. 2026-Jan-31 00:00:00.0000, -1.477251071939169E+08, 2.887799583540565E+08, -1.620422032113567E+07,
2461078.500000000, A.D. 2026-Feb-07 00:00:00.0000, -1.593743997509384E+08, 2.849177280507156E+08, -1.692259161816040E+07,
2461085.500000000, A.D. 2026-Feb-14 00:00:00.0000, -1.708023377869595E+08, 2.806597226838702E+08, -1.761744164669181E+07,
2461092.500000000, A.D. 2026-Feb-21 00:00:00.0000, -1.819975891369114E+08, 2.760193354573591E+08, -1.828827411949806E+07,
2461099.500000000, A.D. 2026-Feb-28 00:00:00.0000, -1.929495917271744E+08, 2.710100198850404E+08, -1.893464717304173E+07,
2461106.500000000, A.D. 2026-Mar-07 00:00:00.0000, -2.036485241098333E+08, 2.656452553078247E+08, -1.955617019411100E+07,
2461113.500000000, A.D. 2026-Mar-14 00:00:00.0000, -2.140852754404453E+08, 2.599385136084691E+08, -2.015250096351543E+07,
2461120.500000000, A.D. 2026-Mar-21 00:00:00.0000, -2.242514133912083E+08, 2.539032297572850E+08, -2.072334305494960E+07,
2461127.500000000, A.D. 2026-Mar-28 00:00:00.0000, -2.341391522505288E+08, 2.475527769659864E+08, -2.126844323257226E+07,
2461134.500000000, A.D. 2026-Apr-04 00:00:00.0000, -2.437413220086399E+08, 2.409004452370782E+08, -2.178758887980096E+07,
2461141.500000000, A.D. 2026-Apr-11 00:00:00.0000, -2.530513383160841E+08, 2.339594227023880E+08, -2.228060551933310E+07,
2461148.500000000, A.D. 2026-Apr-18 00:00:00.0000, -2.620631732885984E+08, 2.267427795058816E+08, -2.274735444330395E+07,
2461155.500000000, A.D. 2026-Apr-25 00:00:00.0000, -2.707713272195671E+08, 2.192634540187379E+08, -2.318773045909417E+07,
2461162.500000000, A.D. 2026-May-02 00:00:00.0000, -2.791708012529480E+08, 2.115342411426585E+08, -2.360165975741463E+07,
2461169.500000000, A.D. 2026-May-09 00:00:00.0000, -2.872570709545938E+08, 2.035677824337928E+08, -2.398909791988000E+07,
2461176.500000000, A.D. 2026-May-16 00:00:00.0000, -2.950260604469689E+08, 1.953765579972391E+08, -2.435002808868605E+07,
2461183.500000000, A.D. 2026-May-23 00:00:00.0000, -3.024741170804905E+08, 1.869728809977761E+08, -2.468445921747563E+07,
2461190.500000000, A.D. 2026-May-30 00:00:00.0000, -3.095979887316607E+08, 1.783688949401229E+08, -2.499242418345468E+07,
2461197.500000000, A.D. 2026-Jun-06 00:00:00.0000, -3.163948040470595E+08, 1.695765702907162E+08, -2.527397799544381E+07,
2461204.500000000, A.D. 2026-Jun-13 00:00:00.0000, -3.228620519569344E+08, 1.606077004935809E+08, -2.552919641260400E+07,
2461211.500000000, A.D. 2026-Jun-20 00:00:00.0000, -3.289975609485052E+08, 1.514739001667443E+08, -2.575817468421970E+07,
2461218.500000000, A.D. 2026-Jun-27 00:00:00.0000, -3.347994797917803E+08, 1.421866050196523E+08, -2.596102628152974E+07,
2461225.500000000, A.D. 2026-Jul-04 00:00:00.0000, -3.402662597031713E+08, 1.327570726159145E+08, -2.613788168403455E+07,
2461232.500000000, A.D. 2026-Jul-11 00:00:00.0000, -3.453966376662412E+08, 1.231963837564691E+08, -2.628888725146869E+07,
2461239.500000000, A.D. 2026-Jul-18 00:00:00.0000, -3.501896207845590E+08, 1.135154444209514E+08, -2.641420418386731E+07,
2461246.500000000, A.D. 2026-Jul-25 00:00:00.0000, -3.546444716080492E+08, 1.037249881882348E+08, -2.651400756752251E+07,
2461253.500000000, A.D. 2026-Aug-01 00:00:00.0000, -3.587606943500172E+08, 9.383557901331949E+07, -2.658848551104967E+07,
2461260.500000000, A.D. 2026-Aug-08 00:00:00.0000, -3.625380217450604E+08, 8.385761425717427E+07, -2.663783839025006E+07,
2461267.500000000, A.D. 2026-Aug-15 00:00:00.0000, -3.659764020976689E+08, 7.380132835913581E+07, -2.666227819919862E+07,
2461274.500000000, A.D. 2026-Aug-22 00:00:00.0000, -3.690759872476915E+08, 6.367679831803529E+07, -2.666202783429600E+07,
2461281.500000000, A.D. 2026-Aug-29 00:00:00.0000, -3.718371237097721E+08, 5.349394955958664E+07, -2.663732021055502E+07,
2461288.500000000, A.D. 2026-Sep-05 00:00:00.0000, -3.742603448237569E+08, 4.326255927994222E+07, -2.658839763775538E+07,
$$EOE